[{"OBJECT_NAME":"TIANQI-27","OBJECT_ID":"2024-102C","EPOCH":"2026-03-09T22:22:51.077568","MEAN_MOTION":13.99134937,"ECCENTRICITY":0.00055536,"INCLINATION":44.9799,"RA_OF_ASC_NODE":343.079,"ARG_OF_PERICENTER":146.4179,"MEAN_ANOMALY":213.7006,"EPHEMERIS_TYPE":0,"CLASSIFICATION_TYPE":"U","NORAD_CAT_ID":59911,"ELEMENT_SET_NO":999,"REV_AT_EPOCH":9100,"BSTAR":0.00025003711,"MEAN_MOTION_DOT":2.36e-6,"MEAN_MOTION_DDOT":0},{"OBJECT_NAME":"METEOR 2-12 DEB","OBJECT_ID":"1985-013G","EPOCH":"2026-03-09T02:29:25.171584","MEAN_MOTION":14.04428502,"ECCENTRICITY":0.0013421,"INCLINATION":82.5323,"RA_OF_ASC_NODE":351.7661,"ARG_OF_PERICENTER":44.6294,"MEAN_ANOMALY":18.0676,"EPHEMERIS_TYPE":0,"CLASSIFICATION_TYPE":"U","NORAD_CAT_ID":59996,"ELEMENT_SET_NO":999,"REV_AT_EPOCH":60340,"BSTAR":0.0025160197,"MEAN_MOTION_DOT":4.025e-5,"MEAN_MOTION_DDOT":0}]
